{"type": "FeatureCollection", "features": [ {"type": "Feature", "properties": {"norad_id": 35288, "name": "COSMOS 2251 DEB", "group": "cosmos-2251-debris", "lat": 6.591958362568369, "lon": 8.8690108566076, "alt_km": 693.934840808759, "timestamp": "2025-12-16T23:36:36.594049+00:00", "meta": {"OBJECT_NAME": "COSMOS 2251 DEB", "OBJECT_ID": "1993-036AJS", "EPOCH": "2025-12-15T08:15:30.303072", "MEAN_MOTION": 14.65486547, "ECCENTRICITY": 0.00393272, "INCLINATION": 73.9514, "RA_OF_ASC_NODE": 10.134, "ARG_OF_PERICENTER": 243.2869, "MEAN_ANOMALY": 116.4271, "EPHEMERIS_TYPE": 0, "CLASSIFICATION_TYPE": "U", "NORAD_CAT_ID": 35288, "ELEMENT_SET_NO": 999, "REV_AT_EPOCH": 87916, "BSTAR": 0.00067125427, "MEAN_MOTION_DOT": 3.647e-05, "MEAN_MOTION_DDOT": 0}, "tle": {"line1": "1 35288U 93036AJS 25349.34410073  .00003647  00000+0  67125-3 0  9995", "line2": "2 35288  73.9514  10.1340 0039327 243.2869 116.4271 14.65486547879167"}}, "geometry": {"type": "Point", "coordinates": [8.8690108566076, 6.591958362568369]}}, {"type": "Feature", "properties": {"norad_id": 35290, "name": "COSMOS 2251 DEB", "group": "cosmos-2251-debris", "lat": 24.619488441540163, "lon": -136.49938916425793, "alt_km": 625.6746284881156, "timestamp": "2025-12-16T23:36:36.594058+00:00", "meta": {"OBJECT_NAME": "COSMOS 2251 DEB", "OBJECT_ID": "1993-036AJU", "EPOCH": "2025-12-15T14:28:49.986048", "MEAN_MOTION": 14.80473727, "ECCENTRICITY": 0.00019506, "INCLINATION": 74.0058, "RA_OF_ASC_NODE": 53.7782, "ARG_OF_PERICENTER": 195.4132, "MEAN_ANOMALY": 164.6986, "EPHEMERIS_TYPE": 0, "CLASSIFICATION_TYPE": "U", "NORAD_CAT_ID": 35290, "ELEMENT_SET_NO": 999, "REV_AT_EPOCH": 88000, "BSTAR": 0.0012248752, "MEAN_MOTION_DOT": 9.351e-05, "MEAN_MOTION_DDOT": 0}, "tle": {"line1": "1 35290U 93036AJU 25349.60335632  .00009351  00000+0  12249-2 0  9998", "line2": "2 35290  74.0058  53.7782 0001950 195.4132 164.6986 14.80473727880006"}}, "geometry": {"type": "Point", "coordinates": [-136.49938916425793, 24.619488441540163]}}, {"type": "Feature", "properties": {"norad_id": 35432, "name": "COSMOS 2251 DEB", "group": "cosmos-2251-debris", "lat": -36.745593609326235, "lon": -5.753595927382877, "alt_km": 491.38432494445715, "timestamp": "2025-12-16T23:36:36.594069+00:00", "meta": {"OBJECT_NAME": "COSMOS 2251 DEB", "OBJECT_ID": "1993-036AKA", "EPOCH": "2025-12-14T11:53:53.822112", "MEAN_MOTION": 15.23399104, "ECCENTRICITY": 0.00124915, "INCLINATION": 74.0198, "RA_OF_ASC_NODE": 11.8484, "ARG_OF_PERICENTER": 339.2428, "MEAN_ANOMALY": 20.8262, "EPHEMERIS_TYPE": 0, "CLASSIFICATION_TYPE": "U", "NORAD_CAT_ID": 35432, "ELEMENT_SET_NO": 999, "REV_AT_EPOCH": 87530, "BSTAR": 0.0051316466, "MEAN_MOTION_DOT": 0.00124451, "MEAN_MOTION_DDOT": 0}, "tle": {"line1": "1 35432U 93036AKA 25348.49576183  .00124451  00000+0  51316-2 0  9997", "line2": "2 35432  74.0198  11.8484 0012491 339.2428  20.8262 15.23399104875302"}}, "geometry": {"type": "Point", "coordinates": [-5.753595927382877, -36.745593609326235]}}, {"type": "Feature", "properties": {"norad_id": 35433, "name": "COSMOS 2251 DEB", "group": "cosmos-2251-debris", "lat": -42.80869998359524, "lon": 166.0518777115057, "alt_km": 799.1852901732063, "timestamp": "2025-12-16T23:36:36.594079+00:00", "meta": {"OBJECT_NAME": "COSMOS 2251 DEB", "OBJECT_ID": "1993-036AKB", "EPOCH": "2025-12-10T18:27:52.031808", "MEAN_MOTION": 14.34742553, "ECCENTRICITY": 0.00254013, "INCLINATION": 74.0339, "RA_OF_ASC_NODE": 342.0559, "ARG_OF_PERICENTER": 37.4572, "MEAN_ANOMALY": 142.4072, "EPHEMERIS_TYPE": 0, "CLASSIFICATION_TYPE": "U", "NORAD_CAT_ID": 35433, "ELEMENT_SET_NO": 999, "REV_AT_EPOCH": 86552, "BSTAR": 0.00041847558, "MEAN_MOTION_DOT": 1.164e-05, "MEAN_MOTION_DDOT": 0}, "tle": {"line1": "1 35433U 93036AKB 25344.76935222  .00001164  00000+0  41848-3 0  9992", "line2": "2 35433  74.0339 342.0559 0025401  37.4572 142.4072 14.34742553865528"}}, "geometry": {"type": "Point", "coordinates": [166.0518777115057, -42.80869998359524]}}, {"type": "Feature", "properties": {"norad_id": 35434, "name": "COSMOS 2251 DEB", "group": "cosmos-2251-debris", "lat": 2.5151894777764796, "lon": -153.3124788469569, "alt_km": 804.5629868220476, "timestamp": "2025-12-16T23:36:36.594089+00:00", "meta": {"OBJECT_NAME": "COSMOS 2251 DEB", "OBJECT_ID": "1993-036AKC", "EPOCH": "2025-12-13T21:29:58.278624", "MEAN_MOTION": 14.25692247, "ECCENTRICITY": 0.00874643, "INCLINATION": 74.0404, "RA_OF_ASC_NODE": 211.5388, "ARG_OF_PERICENTER": 282.0357, "MEAN_ANOMALY": 77.0999, "EPHEMERIS_TYPE": 0, "CLASSIFICATION_TYPE": "U", "NORAD_CAT_ID": 35434, "ELEMENT_SET_NO": 999, "REV_AT_EPOCH": 86134, "BSTAR": 0.00076141319, "MEAN_MOTION_DOT": 1.854e-05, "MEAN_MOTION_DDOT": 0}, "tle": {"line1": "1 35434U 93036AKC 25347.89581341  .00001854  00000+0  76141-3 0  9999", "line2": "2 35434  74.0404 211.5388 0087464 282.0357  77.0999 14.25692247861349"}}, "geometry": {"type": "Point", "coordinates": [-153.3124788469569, 2.5151894777764796]}}, {"type": "Feature", "properties": {"norad_id": 35435, "name": "COSMOS 2251 DEB", "group": "cosmos-2251-debris", "lat": -70.47244218606417, "lon": 41.76523556735425, "alt_km": 640.8821321611777, "timestamp": "2025-12-16T23:36:36.594099+00:00", "meta": {"OBJECT_NAME": "COSMOS 2251 DEB", "OBJECT_ID": "1993-036AKD", "EPOCH": "2025-12-15T01:40:55.350912", "MEAN_MOTION": 14.78555349, "ECCENTRICITY": 0.00077045, "INCLINATION": 74.0104, "RA_OF_ASC_NODE": 99.4797, "ARG_OF_PERICENTER": 193.6881, "MEAN_ANOMALY": 345.6328, "EPHEMERIS_TYPE": 0, "CLASSIFICATION_TYPE": "U", "NORAD_CAT_ID": 35435, "ELEMENT_SET_NO": 999, "REV_AT_EPOCH": 87573, "BSTAR": 0.0012569511, "MEAN_MOTION_DOT": 9.173e-05, "MEAN_MOTION_DDOT": 0}, "tle": {"line1": "1 35435U 93036AKD 25349.07008508  .00009173  00000+0  12570-2 0  9998", "line2": "2 35435  74.0104  99.4797 0007704 193.6881 345.6328 14.78555349875739"}}, "geometry": {"type": "Point", "coordinates": [41.76523556735425, -70.47244218606417]}}, {"type": "Feature", "properties": {"norad_id": 35439, "name": "COSMOS 2251 DEB", "group": "cosmos-2251-debris", "lat": -15.599546960308242, "lon": 122.8793915275311, "alt_km": 802.6170639896918, "timestamp": "2025-12-16T23:36:36.594109+00:00", "meta": {"OBJECT_NAME": "COSMOS 2251 DEB", "OBJECT_ID": "1993-036AKH", "EPOCH": "2025-12-14T03:35:04.308288", "MEAN_MOTION": 13.92816223, "ECCENTRICITY": 0.02421462, "INCLINATION": 74.018, "RA_OF_ASC_NODE": 132.3236, "ARG_OF_PERICENTER": 301.3061, "MEAN_ANOMALY": 233.8403, "EPHEMERIS_TYPE": 0, "CLASSIFICATION_TYPE": "U", "NORAD_CAT_ID": 35439, "ELEMENT_SET_NO": 999, "REV_AT_EPOCH": 83980, "BSTAR": 0.0018477357, "MEAN_MOTION_DOT": 3.02e-05, "MEAN_MOTION_DDOT": 0}, "tle": {"line1": "1 35439U 93036AKH 25348.14935542  .00003020  00000+0  18477-2 0  9993", "line2": "2 35439  74.0180 132.3236 0242146 301.3061 233.8403 13.92816223839807"}}, "geometry": {"type": "Point", "coordinates": [122.8793915275311, -15.599546960308242]}}, {"type": "Feature", "properties": {"norad_id": 35440, "name": "COSMOS 2251 DEB", "group": "cosmos-2251-debris", "lat": 44.273216777384704, "lon": 3.174223856885207, "alt_km": 704.5956019086643, "timestamp": "2025-12-16T23:36:36.594119+00:00", "meta": {"OBJECT_NAME": "COSMOS 2251 DEB", "OBJECT_ID": "1993-036AKJ", "EPOCH": "2025-12-15T07:46:28.648416", "MEAN_MOTION": 14.68828741, "ECCENTRICITY": 0.00694074, "INCLINATION": 74.0146, "RA_OF_ASC_NODE": 202.6185, "ARG_OF_PERICENTER": 342.923, "MEAN_ANOMALY": 16.9604, "EPHEMERIS_TYPE": 0, "CLASSIFICATION_TYPE": "U", "NORAD_CAT_ID": 35440, "ELEMENT_SET_NO": 999, "REV_AT_EPOCH": 68803, "BSTAR": 0.00030871729, "MEAN_MOTION_DOT": 1.836e-05, "MEAN_MOTION_DDOT": 0}, "tle": {"line1": "1 35440U 93036AKJ 25349.32394269  .00001836  00000+0  30872-3 0  9998", "line2": "2 35440  74.0146 202.6185 0069407 342.9230  16.9604 14.68828741688033"}}, "geometry": {"type": "Point", "coordinates": [3.174223856885207, 44.273216777384704]}}, {"type": "Feature", "properties": {"norad_id": 35441, "name": "COSMOS 2251 DEB", "group": "cosmos-2251-debris", "lat": -7.693699094161911, "lon": -72.18368212282486, "alt_km": 713.3522625335381, "timestamp": "2025-12-16T23:36:36.594129+00:00", "meta": {"OBJECT_NAME": "COSMOS 2251 DEB", "OBJECT_ID": "1993-036AKK", "EPOCH": "2025-12-15T03:19:30.492768", "MEAN_MOTION": 14.62637993, "ECCENTRICITY": 0.00365994, "INCLINATION": 74.1346, "RA_OF_ASC_NODE": 293.5313, "ARG_OF_PERICENTER": 189.4895, "MEAN_ANOMALY": 170.5586, "EPHEMERIS_TYPE": 0, "CLASSIFICATION_TYPE": "U", "NORAD_CAT_ID": 35441, "ELEMENT_SET_NO": 999, "REV_AT_EPOCH": 87465, "BSTAR": 0.00095338273, "MEAN_MOTION_DOT": 4.868e-05, "MEAN_MOTION_DDOT": 0}, "tle": {"line1": "1 35441U 93036AKK 25349.13854737  .00004868  00000+0  95338-3 0  9995", "line2": "2 35441  74.1346 293.5313 0036599 189.4895 170.5586 14.62637993874658"}}, "geometry": {"type": "Point", "coordinates": [-72.18368212282486, -7.693699094161911]}}, {"type": "Feature", "properties": {"norad_id": 35442, "name": "COSMOS 2251 DEB", "group": "cosmos-2251-debris", "lat": -27.543825179649712, "lon": -80.6952844292959, "alt_km": 622.2156689085259, "timestamp": "2025-12-16T23:36:36.594139+00:00", "meta": {"OBJECT_NAME": "COSMOS 2251 DEB", "OBJECT_ID": "1993-036AKL", "EPOCH": "2025-12-16T00:01:53.827680", "MEAN_MOTION": 14.84574041, "ECCENTRICITY": 0.00037933, "INCLINATION": 74.0272, "RA_OF_ASC_NODE": 92.6629, "ARG_OF_PERICENTER": 74.6366, "MEAN_ANOMALY": 285.5232, "EPHEMERIS_TYPE": 0, "CLASSIFICATION_TYPE": "U", "NORAD_CAT_ID": 35442, "ELEMENT_SET_NO": 999, "REV_AT_EPOCH": 87401, "BSTAR": 0.0015396089, "MEAN_MOTION_DOT": 0.00012991, "MEAN_MOTION_DDOT": 0}, "tle": {"line1": "1 35442U 93036AKL 25350.00131745  .00012991  00000+0  15396-2 0  9992", "line2": "2 35442  74.0272  92.6629 0003793  74.6366 285.5232 14.84574041874015"}}, "geometry": {"type": "Point", "coordinates": [-80.6952844292959, -27.543825179649712]}}]}